{
  "type": "FeatureCollection",
  "features": [
    {
      "type": "Feature",
      "properties": {
        "norad_id": 66358,
        "name": "STARLINK-35807",
        "group": "last-30-days",
        "lat": -5.8603454898357645,
        "lon": -47.50869403814837,
        "alt_km": 391.189668575591,
        "timestamp": "2025-12-04T07:39:34.997949+00:00",
        "meta_object_name": "STARLINK-35807",
        "meta_object_id": "2025-254L",
        "meta_epoch": "2025-12-03T22:00:03.000096",
        "meta_mean_motion": 15.61195806,
        "meta_eccentricity": 0.00013846,
        "meta_inclination": 53.1595,
        "meta_ra_of_asc_node": 318.8616,
        "meta_arg_of_pericenter": 102.0739,
        "meta_mean_anomaly": 148.8032,
        "meta_ephemeris_type": 0,
        "meta_classification_type": "U",
        "meta_norad_cat_id": 66358,
        "meta_element_set_no": 999,
        "meta_rev_at_epoch": 550,
        "meta_bstar": -0.026552175,
        "meta_mean_motion_dot": -0.02009204,
        "meta_mean_motion_ddot": 0,
        "tle_line1": "1 66358U 25254L   25337.91670139 -.02009204  00000+0 -26552-1 0  9991",
        "tle_line2": "2 66358  53.1595 318.8616 0001384 102.0739 148.8032 15.61195806  5507"
      },
      "geometry": {
        "type": "Point",
        "coordinates": [
          -47.50869403814837,
          -5.8603454898357645
        ]
      }
    },
    {
      "type": "Feature",
      "properties": {
        "norad_id": 66359,
        "name": "STARLINK-35805",
        "group": "last-30-days",
        "lat": -4.3288899732473975,
        "lon": -46.35232659196044,
        "alt_km": 391.02426297687543,
        "timestamp": "2025-12-04T07:39:34.997958+00:00",
        "meta_object_name": "STARLINK-35805",
        "meta_object_id": "2025-254M",
        "meta_epoch": "2025-12-03T22:00:03.000096",
        "meta_mean_motion": 15.61197769,
        "meta_eccentricity": 0.00012833,
        "meta_inclination": 53.1593,
        "meta_ra_of_asc_node": 318.858,
        "meta_arg_of_pericenter": 108.1759,
        "meta_mean_anomaly": 144.6163,
        "meta_ephemeris_type": 0,
        "meta_classification_type": "U",
        "meta_norad_cat_id": 66359,
        "meta_element_set_no": 999,
        "meta_rev_at_epoch": 547,
        "meta_bstar": -0.026570463,
        "meta_mean_motion_dot": -0.02010475,
        "meta_mean_motion_ddot": 0,
        "tle_line1": "1 66359U 25254M   25337.91670139 -.02010475  00000+0 -26570-1 0  9994",
        "tle_line2": "2 66359  53.1593 318.8580 0001283 108.1759 144.6163 15.61197769  5478"
      },
      "geometry": {
        "type": "Point",
        "coordinates": [
          -46.35232659196044,
          -4.3288899732473975
        ]
      }
    },
    {
      "type": "Feature",
      "properties": {
        "norad_id": 66360,
        "name": "STARLINK-35823",
        "group": "last-30-days",
        "lat": -1.263892365697394,
        "lon": -44.055410876681385,
        "alt_km": 390.5682612818664,
        "timestamp": "2025-12-04T07:39:34.997967+00:00",
        "meta_object_name": "STARLINK-35823",
        "meta_object_id": "2025-254N",
        "meta_epoch": "2025-12-03T22:00:03.000096",
        "meta_mean_motion": 15.61197621,
        "meta_eccentricity": 0.0001264,
        "meta_inclination": 53.1594,
        "meta_ra_of_asc_node": 318.8492,
        "meta_arg_of_pericenter": 106.8495,
        "meta_mean_anomaly": 149.777,
        "meta_ephemeris_type": 0,
        "meta_classification_type": "U",
        "meta_norad_cat_id": 66360,
        "meta_element_set_no": 999,
        "meta_rev_at_epoch": 550,
        "meta_bstar": -0.026579261,
        "meta_mean_motion_dot": -0.02011034,
        "meta_mean_motion_ddot": 0,
        "tle_line1": "1 66360U 25254N   25337.91670139 -.02011034  00000+0 -26579-1 0  9997",
        "tle_line2": "2 66360  53.1594 318.8492 0001264 106.8495 149.7770 15.61197621  5505"
      },
      "geometry": {
        "type": "Point",
        "coordinates": [
          -44.055410876681385,
          -1.263892365697394
        ]
      }
    },
    {
      "type": "Feature",
      "properties": {
        "norad_id": 66361,
        "name": "STARLINK-35813",
        "group": "last-30-days",
        "lat": -2.798011718339327,
        "lon": -45.202689124180154,
        "alt_km": 390.80472859546444,
        "timestamp": "2025-12-04T07:39:34.997976+00:00",
        "meta_object_name": "STARLINK-35813",
        "meta_object_id": "2025-254P",
        "meta_epoch": "2025-12-03T22:00:03.000096",
        "meta_mean_motion": 15.61208304,
        "meta_eccentricity": 0.00013045,
        "meta_inclination": 53.1592,
        "meta_ra_of_asc_node": 318.8541,
        "meta_arg_of_pericenter": 107.8582,
        "meta_mean_anomaly": 146.8413,
        "meta_ephemeris_type": 0,
        "meta_classification_type": "U",
        "meta_norad_cat_id": 66361,
        "meta_element_set_no": 999,
        "meta_rev_at_epoch": 550,
        "meta_bstar": -0.026699474,
        "meta_mean_motion_dot": -0.0201976,
        "meta_mean_motion_ddot": 0,
        "tle_line1": "1 66361U 25254P   25337.91670139 -.02019760  00000+0 -26699-1 0  9995",
        "tle_line2": "2 66361  53.1592 318.8541 0001304 107.8582 146.8413 15.61208304  5505"
      },
      "geometry": {
        "type": "Point",
        "coordinates": [
          -45.202689124180154,
          -2.798011718339327
        ]
      }
    },
    {
      "type": "Feature",
      "properties": {
        "norad_id": 66362,
        "name": "STARLINK-35822",
        "group": "last-30-days",
        "lat": 1.8020002055570903,
        "lon": -41.76331227852827,
        "alt_km": 390.0632066415965,
        "timestamp": "2025-12-04T07:39:34.997985+00:00",
        "meta_object_name": "STARLINK-35822",
        "meta_object_id": "2025-254Q",
        "meta_epoch": "2025-12-03T22:00:03.000096",
        "meta_mean_motion": 15.61195299,
        "meta_eccentricity": 0.00013773,
        "meta_inclination": 53.1592,
        "meta_ra_of_asc_node": 318.8419,
        "meta_arg_of_pericenter": 102.0979,
        "meta_mean_anomaly": 158.363,
        "meta_ephemeris_type": 0,
        "meta_classification_type": "U",
        "meta_norad_cat_id": 66362,
        "meta_element_set_no": 999,
        "meta_rev_at_epoch": 550,
        "meta_bstar": -0.026532502,
        "meta_mean_motion_dot": -0.0200786,
        "meta_mean_motion_ddot": 0,
        "tle_line1": "1 66362U 25254Q   25337.91670139 -.02007860  00000+0 -26533-1 0  9991",
        "tle_line2": "2 66362  53.1592 318.8419 0001377 102.0979 158.3630 15.61195299  5504"
      },
      "geometry": {
        "type": "Point",
        "coordinates": [
          -41.76331227852827,
          1.8020002055570903
        ]
      }
    },
    {
      "type": "Feature",
      "properties": {
        "norad_id": 66363,
        "name": "STARLINK-35806",
        "group": "last-30-days",
        "lat": 0.26874676673521186,
        "lon": -42.90953530268094,
        "alt_km": 390.2981353159166,
        "timestamp": "2025-12-04T07:39:34.997994+00:00",
        "meta_object_name": "STARLINK-35806",
        "meta_object_id": "2025-254R",
        "meta_epoch": "2025-12-03T22:00:03.000096",
        "meta_mean_motion": 15.6119667,
        "meta_eccentricity": 0.00013486,
        "meta_inclination": 53.1592,
        "meta_ra_of_asc_node": 318.8458,
        "meta_arg_of_pericenter": 102.3368,
        "meta_mean_anomaly": 156.2068,
        "meta_ephemeris_type": 0,
        "meta_classification_type": "U",
        "meta_norad_cat_id": 66363,
        "meta_element_set_no": 999,
        "meta_rev_at_epoch": 547,
        "meta_bstar": -0.026558849,
        "meta_mean_motion_dot": -0.02009679,
        "meta_mean_motion_ddot": 0,
        "tle_line1": "1 66363U 25254R   25337.91670139 -.02009679  00000+0 -26559-1 0  9990",
        "tle_line2": "2 66363  53.1592 318.8458 0001348 102.3368 156.2068 15.61196670  5473"
      },
      "geometry": {
        "type": "Point",
        "coordinates": [
          -42.90953530268094,
          0.26874676673521186
        ]
      }
    },
    {
      "type": "Feature",
      "properties": {
        "norad_id": 66364,
        "name": "STARLINK-35797",
        "group": "last-30-days",
        "lat": 3.337612935021894,
        "lon": -40.613432285183386,
        "alt_km": 389.8681377718349,
        "timestamp": "2025-12-04T07:39:34.998004+00:00",
        "meta_object_name": "STARLINK-35797",
        "meta_object_id": "2025-254S",
        "meta_epoch": "2025-12-03T22:00:03.000096",
        "meta_mean_motion": 15.61198741,
        "meta_eccentricity": 0.00012623,
        "meta_inclination": 53.1593,
        "meta_ra_of_asc_node": 318.8374,
        "meta_arg_of_pericenter": 105.8295,
        "meta_mean_anomaly": 156.55,
        "meta_ephemeris_type": 0,
        "meta_classification_type": "U",
        "meta_norad_cat_id": 66364,
        "meta_element_set_no": 999,
        "meta_rev_at_epoch": 550,
        "meta_bstar": -0.026635525,
        "meta_mean_motion_dot": -0.02014836,
        "meta_mean_motion_ddot": 0,
        "tle_line1": "1 66364U 25254S   25337.91670139 -.02014836  00000+0 -26636-1 0  9998",
        "tle_line2": "2 66364  53.1593 318.8374 0001262 105.8295 156.5500 15.61198741  5503"
      },
      "geometry": {
        "type": "Point",
        "coordinates": [
          -40.613432285183386,
          3.337612935021894
        ]
      }
    }
  ]
}